[Satellite]
VERSION=1.1
NAME=GPS BIIF-2
NICKNAME=GPS BIIF-2
TLE1=1 37753U 11036A   17186.30588024 -.00000069  00000-0  00000-0 0  9995
TLE2=2 37753  55.4530 100.0528 0067154  31.3200  78.9159  2.00562543 43718
